XRISM                   
1 57800U 23137A   23309.20675371  .00008644  00000+0  69911-3 0  9994
2 57800  31.0052   1.5341 0010349 142.1570 217.9794 14.98477099  8885
